#dP2022  7  2 12  0  0.00000000      96 __u+U ITR00 EXT  IAC
## 2216 561600.00000000   900.00000000 59762 0.5000000000000
+  114   C06C08C10C11C12C13C14C16C19C20C21C22C23C24C25C26C27
+        C28C29C30C32C33C34C35C36C37C38C39C40C41C42C43C44C45
+        C46E01E02E03E04E05E07E08E09E10E11E12E13E14E15E18E19
+        E21E24E25E26E27E30E31E33E34E36G01G02G03G04G05G06G07
+        G08G09G10G11G12G13G14G15G16G17G18G19G20G21G22G23G24
+        G25G26G27G28G29G30G31G32J02J03R01R02R03R04R05R07R08
+        R09R11R12R13R14R15R17R18R19R20R21R24  0  0  0  0  0
++        11  7 11  8  7  8  9 10  8 10  8  9  8  9  8  9  9
++         9  6  8  9  8  6  7  8  9  9  0 10  8  7  9  8  8
++         8  6  8  8  8  7  7  7  9  8  8  8  8  7  8  9  8
++         7  7  8  9  8  6  7  7  8  8  8  8  8  6  6  5  7
++         0  8  7  8  7  8  8  7  7  7  7  7  7  9  8  7  8
++         6  7  9  7  7  8  8  9  9  8  9  7 10  9  7 10 10
++         8  9  9  9  7  7  8  9  7  9  8  9  0  0  0  0  0
%c M  cc GPS ccc cccc cccc cccc cccc ccccc ccccc ccccc ccccc
%c cc cc ccc ccc cccc cccc cccc cccc ccccc ccccc ccccc ccccc
%f  0.0000000  0.000000000  0.00000000000  0.000000000000000
%f  0.0000000  0.000000000  0.00000000000  0.000000000000000
%i    0    0    0    0      0      0      0      0         0
%i    0    0    0    0      0      0      0      0         0
/* IAC                                ULTRA-RAPID PREDICTION
/* S/V CLOCKS ARE ALIGNED TO GNSS TIME                      
/* G:C1WC2W R:C1PC2P E:C1XC5X C:C2IC6I J:C1CC2S             
/* PCV:IGS14_2196 OL/AL:FES2004  NONE     YN ORB:CoN CLK:CoN
*  2022 07 02 22 45  0.00000000
PC06  -7746.328654  40744.541976  -6809.944019    312.273261
PC08 -18189.056917  27016.668609 -26877.648053    388.233513
PC10   3714.613228  29810.635206  30014.680025    121.785483
PC11  -5162.067937 -26079.760665   8480.988693    450.817865
PC12   6108.198625 -25642.498864  -9103.580245   -586.009639
PC13 -12712.081616  27860.042130 -28984.089529     12.828995
PC14 -13947.461574 -19245.491868  14592.330232    525.139177
PC16  -8855.651238  40002.710502  -9217.580627    142.132083
PC19  21471.856885  16743.341863  -6150.171232   -126.773170
PC20   6205.061534  18840.007331 -19629.922348   -964.382022
PC21  13922.585531  -9668.055910  22190.055013   -601.113486
PC22  24983.875285   4944.799353  11446.165311   -963.011553
PC23 -24698.190010   4367.050227 -12221.078252   -940.128941
PC24   6749.063576 -19597.090527 -18677.698913   -968.408649
PC25 -14013.325837  -9881.296795 -22022.628255   -713.243982
PC26  20840.297348 -17686.114329  -5545.066230    715.082225
PC27 -11166.789723  19823.612173  16126.006489    748.213496
PC28 -15883.216366    720.267370  22931.532923     85.487410
PC29  11994.900453  19333.869317 -16169.451553    576.445826
PC30    606.477392  27881.046984    670.530450    500.653116
PC32 -13866.743464   9753.694347 -22147.701132   -973.938999
PC33 -21468.380165 -16670.216951   6274.810567    -73.438787
PC34  -1235.905309 -27887.442136    327.077905   -367.529275
PC35  15977.334290     52.121875 -22892.102915    347.996520
PC36  13272.447942  10616.937553  22162.560310   -971.995523
PC37 -21927.239254  16704.620715   4430.931590   -913.021816
PC38 -23986.880832  28497.112971 -19887.209134      7.387005
PC39 -10369.559555  37742.927627 -15374.546857     34.996999
PC40  -7677.777946  22047.014844  35121.679812    282.310275
PC41 -25099.610624  -5253.113590 -10949.021441    -48.999983
PC42  -4980.320504 -18645.807131  20190.386683   -955.848854
PC43 -11665.801255 -19997.359350  15581.030789      0.719869
PC44  10669.479277 -20066.393202 -16229.901106    711.528650
PC45  24738.620459  -4661.521781  12032.003792    798.903338
PC46  -5180.539580  19224.127499  19575.388523   -410.957147
PE01 -16968.608014  13776.477998  19965.786381   -507.653974
PE02  16790.747960 -13839.207452 -20060.728353    309.458546
PE03   6144.925317 -19308.642519  21574.623750   -574.986528
PE04   9726.435388  26852.538414  -7778.637617  -1062.961139
PE05  18709.645670   -259.211937  22944.181997   -166.619621
PE07 -20197.896228 -18649.793281 -10946.735452   -683.967671
PE08  -9977.555573 -26790.323850   7649.383151   -556.903939
PE09  20222.488047  18607.530178  11030.190478   -574.092918
PE10   6089.507490  18706.167595 -22133.228147   -523.694801
PE11  13376.269015   9117.755197 -24797.683186   3146.772882
PE12  -1716.175928  24798.895647 -16067.456772    -41.755441
PE13 -12872.099894  -9799.404962  24783.390219    429.601901
PE14  21060.066334  -1101.205323 -24101.109044  -1790.478782
PE15   1844.620779 -24862.143665  15957.664579    735.687027
PE18 -12007.248361  11295.650260  18293.726927  -1259.836275
PE19  -8020.480716  17301.069752 -22629.165472  -5203.659155
PE21 -28829.674603   4051.880222   5345.856995   -743.655324
PE24  24203.443956   9441.891464  14160.535612   -703.448054
PE25  28906.694489  -3858.742410  -5060.582729   -579.707970
PE26 -20113.533683  11698.481046  18293.950608  -1331.732916
PE27 -24992.090563  -8682.137956 -13271.482803   -335.822709
PE30  -5350.345378 -16403.049259 -24057.387769   -640.761161
PE31   6476.693318  16200.216374  23922.648681   -499.273457
PE33 -15390.978837  25182.119737   2223.910435   -455.079037
PE34  15261.974875 -25274.709007  -2058.502259   -525.139815
PE36  19922.332710 -10894.956052 -18997.706616   -396.615444
PG01 -13539.967910  22421.274877  -3362.552122    329.182417
PG02  18525.553060 -10130.200291 -15558.798652   -651.997871
PG03 -11327.283474  12851.114539 -20381.186405   -296.365509
PG04  -4628.671574  19742.235661 -17096.639886   -150.460888
PG05  23500.450929  -6297.356817  10658.553578    -87.694753
PG06  13679.058578   5799.912929 -21963.011601    368.425447
PG07   -586.190639  20989.110503  16374.762341    320.525383
PG08  -9866.651808  12901.805441  20905.383091    -74.574335
PG09   4756.337254  24502.766029  -9100.631143   -322.870522
PG10 -19266.363795 -11593.886983  14514.626226   -477.525836
PG11  19842.327034  -6888.067967 -16246.129323    -11.880443
PG12  15132.140487 -10862.236191 -19160.299750   -240.345120
PG13  14879.997828  -2398.185919  21723.626678    340.970349
PG14  17592.689455  13077.539526  15069.364352   -112.011529
PG15   8849.331305 -14149.429248  20182.780372    -48.523129
PG16 -26018.178130   -455.395258   6136.548109   -512.955755
PG17  13274.329229  21872.743987  -6586.922914    632.228649
PG18   1693.678536 -20943.087457  16164.887267    124.936593
PG19  15900.210273  15583.137157 -14912.791380    178.563770
PG20  26392.315066   -985.397351  -1109.919187    506.467011
PG21 -17260.235854  18296.523629   7945.816584    161.240504
PG22 -16536.263672 -13150.918119 -15784.478546    285.760511
PG23  -8796.920323 -14575.591625  20404.373342    -31.085542
PG24  14273.466204 -22060.634092   1429.366123    206.794979
PG25   -100.340507 -15488.016965 -21872.574425    344.547914
PG26 -25991.934588  -4275.916470  -4622.734324    215.960397
PG27 -16292.570667  -1392.791227  20795.174533    219.400474
PG28  23226.407553  10036.930080   8179.199607    329.704409
PG29  -3132.029780 -24896.170614  -8644.016270   -529.826285
PG30   8207.561990  14596.552758  20658.483480   -533.027902
PG31 -16009.037044  -3515.036602 -21112.077763   -184.188618
PG32 -15967.134551 -19392.006928  -8766.781294   -166.172885
PJ02 -30788.022107  23374.258680  21756.748569     -1.235661
PJ03 -27315.900049  28855.131030  18972.139300     -3.233791
PR01 -20020.723926  -7293.936881 -14008.092097     10.854688
PR02  -7889.184278   7502.590088 -23025.027091    523.019075
PR03   7886.115994  17109.169058 -17123.221964     59.516690
PR04  18919.390813  17004.663671  -1807.236188    149.231368
PR05  19530.736525   7631.869756  14522.929103     95.589630
PR07  -8508.371124 -17379.880956  16685.695615     37.280932
PR08 -18993.635773 -16956.678472   1805.019639    -65.988764
PR09  19474.389682 -13050.666643 -10128.976365     63.694680
PR11 -12982.441465  -5728.180155 -21178.149940     34.461750
PR12 -23840.713434   5149.134881  -7461.102846     19.141622
PR13 -20337.583324  12507.974292   8963.047973    -24.204333
PR14  -3977.244093  12776.115182  21728.592080     25.023746
PR15  13783.017992   5494.190314  20774.472096     94.921529
PR17  -2471.766924  25052.146180  -4251.998600    540.093525
PR18   5425.555329  16560.927567 -18598.945077    122.281424
PR19  10347.463816   1061.983916 -23298.154337   -194.849390
PR20  10260.413239 -18993.046745 -13620.152568    -73.796579
PR21   1874.742697 -24756.533118   5781.854024   -314.259496
PR24  -9858.001670  19665.407066  12937.915958    101.613639
EOF
